[{"OBJECT_NAME":"AVION KALUGA 650","OBJECT_ID":"2023-091AF","EPOCH":"2026-03-09T22:36:21.989088","MEAN_MOTION":15.19219239,"ECCENTRICITY":0.00122198,"INCLINATION":97.5213,"RA_OF_ASC_NODE":128.9411,"ARG_OF_PERICENTER":96.9112,"MEAN_ANOMALY":263.3513,"EPHEMERIS_TYPE":0,"CLASSIFICATION_TYPE":"U","NORAD_CAT_ID":57195,"ELEMENT_SET_NO":999,"REV_AT_EPOCH":14895,"BSTAR":0.0003411279,"MEAN_MOTION_DOT":7.129e-5,"MEAN_MOTION_DDOT":0},{"OBJECT_NAME":"STARLINK-5485","OBJECT_ID":"2023-094AV","EPOCH":"2026-03-09T22:00:01.999584","MEAN_MOTION":15.14639465,"ECCENTRICITY":0.00016836,"INCLINATION":43.001,"RA_OF_ASC_NODE":28.4084,"ARG_OF_PERICENTER":253.972,"MEAN_ANOMALY":53.3121,"EPHEMERIS_TYPE":0,"CLASSIFICATION_TYPE":"U","NORAD_CAT_ID":57261,"ELEMENT_SET_NO":999,"REV_AT_EPOCH":577,"BSTAR":0.0044032265,"MEAN_MOTION_DOT":0.000836,"MEAN_MOTION_DDOT":0}]
